GLOBALSTAR M035         
1 25851U 99037A   24315.91721907 -.00000056  00000+0  27607-3 0  9996
2 25851  51.9919 181.7284 0013840 353.9938  18.8705 11.04535015 72142
GLOBALSTAR M032         
1 25852U 99037B   24315.57812806 -.00000175  00000+0 -34641-2 0  9996
2 25852  51.9988  22.7588 0011039 160.2222 199.9008 11.19058283110315
GLOBALSTAR M051         
1 25853U 99037C   24315.97276631 -.00000075  00000+0 -66998-4 0  9992
2 25853  51.9782 207.3068 0001112 131.8226 228.2679 11.42199069107456
GLOBALSTAR M030         
1 25854U 99037D   24315.92959582 -.00000123  00000+0 -10258-2 0  9991
2 25854  51.9908  27.3918 0003654  22.6783 337.4195 11.55101568124826
GLOBALSTAR M048         
1 25872U 99041A   24315.76366735 -.00000037  00000+0  88516-3 0  9996
2 25872  51.9325 134.3985 0013720 161.3944 314.2311 11.33851887100208
GLOBALSTAR M026         
1 25873U 99041B   24315.71400513 -.00000058  00000+0  21537-3 0  9998
2 25873  52.0018 302.4364 0001115 259.3275 271.3706 11.06827830124296
GLOBALSTAR M043         
1 25874U 99041C   24315.92166899 -.00000037  00000+0  94126-3 0  9999
2 25874  51.9401 232.9711 0012750 303.3951 144.9092 11.25687077 98293
GLOBALSTAR M028         
1 25875U 99041D   24315.87902833 -.00000044  00000+0  36585-3 0  9993
2 25875  51.9602 124.0148 0062602 317.9370  41.6695 12.50569960162865
